{
"type": "FeatureCollection",
"name": "browning-flex-units",
"features": [
{ "type": "Feature", "properties": { "unit_number": "A1", "building": "A" }, "geometry": { "type": "Polygon", "coordinates": [ [ [ -97.240313878594264, 32.846383118210845 ], [ -97.240186878594258, 32.846381284877509 ], [ -97.24018504526093, 32.846464284877506 ], [ -97.24031187859427, 32.846466118210842 ], [ -97.240313878594264, 32.846383118210845 ] ] ] } },
{ "type": "Feature", "properties": { "unit_number": "A2", "building": "A" }, "geometry": { "type": "Polygon", "coordinates": [ [ [ -97.240186878594258, 32.846381284877509 ], [ -97.240059878594266, 32.84637945154418 ], [ -97.240058211927604, 32.846462451544177 ], [ -97.24018504526093, 32.846464284877506 ], [ -97.240186878594258, 32.846381284877509 ] ] ] } },
{ "type": "Feature", "properties": { "unit_number": "A3", "building": "A" }, "geometry": { "type": "Polygon", "coordinates": [ [ [ -97.240059878594266, 32.84637945154418 ], [ -97.23993287859426, 32.846377618210845 ], [ -97.239931378594264, 32.846460618210841 ], [ -97.240058211927604, 32.846462451544177 ], [ -97.240059878594266, 32.84637945154418 ] ] ] } },
{ "type": "Feature", "properties": { "unit_number": "A4", "building": "A" }, "geometry": { "type": "Polygon", "coordinates": [ [ [ -97.23993287859426, 32.846377618210845 ], [ -97.239805878594254, 32.846375784877509 ], [ -97.239804545260924, 32.846458784877505 ], [ -97.239931378594264, 32.846460618210841 ], [ -97.23993287859426, 32.846377618210845 ] ] ] } },
{ "type": "Feature", "properties": { "unit_number": "A5", "building": "A" }, "geometry": { "type": "Polygon", "coordinates": [ [ [ -97.239805878594254, 32.846375784877509 ], [ -97.239678878594262, 32.84637395154418 ], [ -97.239677711927598, 32.846456951544177 ], [ -97.239804545260924, 32.846458784877505 ], [ -97.239805878594254, 32.846375784877509 ] ] ] } },
{ "type": "Feature", "properties": { "unit_number": "A6", "building": "A" }, "geometry": { "type": "Polygon", "coordinates": [ [ [ -97.239678878594262, 32.84637395154418 ], [ -97.239551878594256, 32.846372118210844 ], [ -97.239550878594258, 32.846455118210841 ], [ -97.239677711927598, 32.846456951544177 ], [ -97.239678878594262, 32.84637395154418 ] ] ] } },
{ "type": "Feature", "properties": { "unit_number": "B1", "building": "B" }, "geometry": { "type": "Polygon", "coordinates": [ [ [ -97.240199878594268, 32.846659118210844 ], [ -97.240106450022836, 32.846657832496561 ], [ -97.240105307165692, 32.846740832496558 ], [ -97.240198878594256, 32.846742118210841 ], [ -97.240199878594268, 32.846659118210844 ] ] ] } },
{ "type": "Feature", "properties": { "unit_number": "B2", "building": "B" }, "geometry": { "type": "Polygon", "coordinates": [ [ [ -97.240106450022836, 32.846657832496561 ], [ -97.240013021451404, 32.84665654678227 ], [ -97.240011735737113, 32.846739546782267 ], [ -97.240105307165692, 32.846740832496558 ], [ -97.240106450022836, 32.846657832496561 ] ] ] } },
{ "type": "Feature", "properties": { "unit_number": "B3", "building": "B" }, "geometry": { "type": "Polygon", "coordinates": [ [ [ -97.240013021451404, 32.84665654678227 ], [ -97.239919592879971, 32.846655261067987 ], [ -97.239918164308548, 32.846738261067983 ], [ -97.240011735737113, 32.846739546782267 ], [ -97.240013021451404, 32.84665654678227 ] ] ] } },
{ "type": "Feature", "properties": { "unit_number": "B4", "building": "B" }, "geometry": { "type": "Polygon", "coordinates": [ [ [ -97.239919592879971, 32.846655261067987 ], [ -97.239826164308553, 32.846653975353703 ], [ -97.23982459287997, 32.8467369753537 ], [ -97.239918164308548, 32.846738261067983 ], [ -97.239919592879971, 32.846655261067987 ] ] ] } },
{ "type": "Feature", "properties": { "unit_number": "B5", "building": "B" }, "geometry": { "type": "Polygon", "coordinates": [ [ [ -97.239826164308553, 32.846653975353703 ], [ -97.239732735737121, 32.84665268963942 ], [ -97.239731021451405, 32.846735689639416 ], [ -97.23982459287997, 32.8467369753537 ], [ -97.239826164308553, 32.846653975353703 ] ] ] } },
{ "type": "Feature", "properties": { "unit_number": "B6", "building": "B" }, "geometry": { "type": "Polygon", "coordinates": [ [ [ -97.239732735737121, 32.84665268963942 ], [ -97.239639307165689, 32.846651403925129 ], [ -97.239637450022826, 32.846734403925126 ], [ -97.239731021451405, 32.846735689639416 ], [ -97.239732735737121, 32.84665268963942 ] ] ] } },
{ "type": "Feature", "properties": { "unit_number": "B7", "building": "B" }, "geometry": { "type": "Polygon", "coordinates": [ [ [ -97.239639307165689, 32.846651403925129 ], [ -97.239545878594257, 32.846650118210846 ], [ -97.239543878594262, 32.846733118210842 ], [ -97.239637450022826, 32.846734403925126 ], [ -97.239639307165689, 32.846651403925129 ] ] ] } }
]
}
