{
  "type": "FeatureCollection",
  "name": "site-concrete",
  "crs": {
    "type": "name",
    "properties": {
      "name": "urn:ogc:def:crs:OGC:1.3:CRS84"
    }
  },
  "features": [
    {
      "type": "Feature",
      "properties": {
        "feature_type": "concrete"
      },
      "geometry": {
        "type": "Polygon",
        "coordinates": [
          [
            [
              -97.23946267984182,
              32.8466099065452
            ],
            [
              -97.23946231303981,
              32.84665358890411
            ],
            [
              -97.23946719745767,
              32.846653627462835
            ],
            [
              -97.2394674230994,
              32.84664897691476
            ],
            [
              -97.23946802876411,
              32.84664435062898
            ],
            [
              -97.2394690115586,
              32.846639770707476
            ],
            [
              -97.2394703667885,
              32.846635259025156
            ],
            [
              -97.2394720879794,
              32.8466308371355
            ],
            [
              -97.23947416690942,
              32.846626526161025
            ],
            [
              -97.2394765936479,
              32.84662234669434
            ],
            [
              -97.23947935660259,
              32.846618318700486
            ],
            [
              -97.23948244257502,
              32.84661446142034
            ],
            [
              -97.23948583682423,
              32.8466107932802
            ],
            [
              -97.23948952313567,
              32.846607331802076
            ],
            [
              -97.23949348390074,
              32.84660409352059
            ],
            [
              -97.23949770019911,
              32.84660109390517
            ],
            [
              -97.23950215189053,
              32.84659834728425
            ],
            [
              -97.23950681770907,
              32.846595866778834
            ],
            [
              -97.23951167536687,
              32.84659366423655
            ],
            [
              -97.23951670166008,
              32.846591750179776
            ],
            [
              -97.23952187257835,
              32.84659013375093
            ],
            [
              -97.23952716342113,
              32.846588822672125
            ],
            [
              -97.23953254891428,
              32.84658782320663
            ],
            [
              -97.23953800333256,
              32.846587140127085
            ],
            [
              -97.23953855537141,
              32.84658710337491
            ],
            [
              -97.23953910909302,
              32.846587098384404
            ],
            [
              -97.23953966193571,
              32.84658712518003
            ],
            [
              -97.2395402113417,
              32.846587183637226
            ],
            [
              -97.23954075476854,
              32.846587273484786
            ],
            [
              -97.23954128970213,
              32.8465873943079
            ],
            [
              -97.23954181366781,
              32.84658754554669
            ],
            [
              -97.23954232424056,
              32.846587726502825
            ],
            [
              -97.23954281905876,
              32.846587936337684
            ],
            [
              -97.23954329583285,
              32.84658817408109
            ],
            [
              -97.2395437523567,
              32.84658843863314
            ],
            [
              -97.23954418651836,
              32.84658872876918
            ],
            [
              -97.23954459630922,
              32.84658904314751
            ],
            [
              -97.23954497983257,
              32.846589380313
            ],
            [
              -97.23954533531469,
              32.84658973870616
            ],
            [
              -97.23954566111057,
              32.84659011666921
            ],
            [
              -97.23954595571243,
              32.846590512452025
            ],
            [
              -97.239546217758,
              32.84659092422474
            ],
            [
              -97.23954644603445,
              32.84659135008098
            ],
            [
              -97.2395466394855,
              32.84659178805168
            ],
            [
              -97.239546797216,
              32.84659223610984
            ],
            [
              -97.23954691849686,
              32.84659269218227
            ],
            [
              -97.23954700276607,
              32.846593154158455
            ],
            [
              -97.23954704963438,
              32.846593619902855
            ],
            [
              -97.2395470588848,
              32.84659408725783
            ],
            [
              -97.23954622380919,
              32.846634801343356
            ],
            [
              -97.23954635947206,
              32.84663480332591
            ],
            [
              -97.23954604943835,
              32.846649919001216
            ],
            [
              -97.23957033316333,
              32.84665027387716
            ],
            [
              -97.24016941062926,
              32.84665902713546
            ],
            [
              -97.24016972055686,
              32.84664391145173
            ],
            [
              -97.24017047788674,
              32.84660697519516
            ],
            [
              -97.2401705057398,
              32.84660651388571
            ],
            [
              -97.24017057024454,
              32.84660605519878
            ],
            [
              -97.240170671109,
              32.84660560120518
            ],
            [
              -97.24017080787885,
              32.84660515395727
            ],
            [
              -97.2401709799353,
              32.84660471547496
            ],
            [
              -97.24017118650089,
              32.84660428774075
            ],
            [
              -97.24017142664242,
              32.84660387268583
            ],
            [
              -97.24017169927492,
              32.84660347218607
            ],
            [
              -97.24017200316646,
              32.846603088050976
            ],
            [
              -97.24017233694406,
              32.84660272201653
            ],
            [
              -97.24017269909963,
              32.846602375736076
            ],
            [
              -97.2401730879971,
              32.84660205077451
            ],
            [
              -97.24017350187869,
              32.84660174860049
            ],
            [
              -97.24017393887507,
              32.84660147057852
            ],
            [
              -97.2401743970114,
              32.846601217964704
            ],
            [
              -97.24017487421771,
              32.846600991901354
            ],
            [
              -97.24017536833809,
              32.84660079340872
            ],
            [
              -97.24017587713954,
              32.84660062338436
            ],
            [
              -97.24017639832368,
              32.84660048259666
            ],
            [
              -97.24017692953508,
              32.84660037168174
            ],
            [
              -97.24017746837444,
              32.846600291140284
            ],
            [
              -97.24017801240628,
              32.84660024133561
            ],
            [
              -97.24017855917305,
              32.846600222494466
            ],
            [
              -97.24017910620445,
              32.846600234700595
            ],
            [
              -97.24017965102792,
              32.84660027789953
            ],
            [
              -97.24018019118299,
              32.84660035189518
            ],
            [
              -97.2401807242286,
              32.8466004563539
            ],
            [
              -97.24018124775631,
              32.846600590803874
            ],
            [
              -97.24018175940019,
              32.846600754638075
            ],
            [
              -97.24018683988974,
              32.84660272790502
            ],
            [
              -97.24019174412892,
              32.8466049967461
            ],
            [
              -97.24019644801963,
              32.84660755001522
            ],
            [
              -97.240200928449,
              32.84661037516429
            ],
            [
              -97.24020516340155,
              32.846613458312994
            ],
            [
              -97.24020913206742,
              32.846616784311394
            ],
            [
              -97.24021281494649,
              32.84662033681578
            ],
            [
              -97.24021619394235,
              32.8466240983712
            ],
            [
              -97.24021925245074,
              32.84662805049453
            ],
            [
              -97.2402219754441,
              32.84663217376631
            ],
            [
              -97.24022434954242,
              32.84663644792521
            ],
            [
              -97.24022636307927,
              32.84664085197092
            ],
            [
              -97.24022800616146,
              32.84664536426182
            ],
            [
              -97.24022927071512,
              32.84664996262739
            ],
            [
              -97.24023015052622,
              32.84665462447134
            ],
            [
              -97.24023064127222,
              32.84665932688816
            ],
            [
              -97.24023074054173,
              32.846664046770144
            ],
            [
              -97.24022845137227,
              32.846775696958616
            ],
            [
              -97.24022817097418,
              32.84678029144
            ],
            [
              -97.24022751960308,
              32.846784859040234
            ],
            [
              -97.24022650029812,
              32.8467893784435
            ],
            [
              -97.2402251178164,
              32.84679382855734
            ],
            [
              -97.24022337860958,
              32.84679818861448
            ],
            [
              -97.24022129079518,
              32.84680243826533
            ],
            [
              -97.2402188641161,
              32.84680655767806
            ],
            [
              -97.24021610989767,
              32.8468105276268
            ],
            [
              -97.24021304099375,
              32.84681432958473
            ],
            [
              -97.24020967172659,
              32.84681794580864
            ],
            [
              -97.24020601782048,
              32.84682135942092
            ],
            [
              -97.2402020963279,
              32.84682455449069
            ],
            [
              -97.24019792555012,
              32.84682751610704
            ],
            [
              -97.24019352495161,
              32.846830230448305
            ],
            [
              -97.24018891507012,
              32.846832684846085
            ],
            [
              -97.24018411741967,
              32.84683486784647
            ],
            [
              -97.24017915439073,
              32.84683676926146
            ],
            [
              -97.24017404914508,
              32.84683838021776
            ],
            [
              -97.24016882550896,
              32.84683969319626
            ],
            [
              -97.24016350786064,
              32.846840702068896
            ],
            [
              -97.2401581210171,
              32.84684140212883
            ],
            [
              -97.24015269011879,
              32.84684179010837
            ],
            [
              -97.24014724051165,
              32.84684186419573
            ],
            [
              -97.24014721233601,
              32.84684323834851
            ],
            [
              -97.24014715977444,
              32.846845801826355
            ],
            [
              -97.24038012912423,
              32.84684920505019
            ],
            [
              -97.24038018546828,
              32.84684645674525
            ],
            [
              -97.24038021378618,
              32.84684507572014
            ],
            [
              -97.24037469562478,
              32.846844356842674
            ],
            [
              -97.2403692505436,
              32.84684331394829
            ],
            [
              -97.24036390521063,
              32.84684195214697
            ],
            [
              -97.24035868580683,
              32.84684027810673
            ],
            [
              -97.24035361789575,
              32.84683830002838
            ],
            [
              -97.24034872629936,
              32.846836027598364
            ],
            [
              -97.240344034975,
              32.846833471947505
            ],
            [
              -97.24033956690025,
              32.846830645593265
            ],
            [
              -97.24033534395926,
              32.846827562378365
            ],
            [
              -97.24033138683453,
              32.846824237403574
            ],
            [
              -97.24032771490754,
              32.84682068695384
            ],
            [
              -97.2403243461627,
              32.84681692841873
            ],
            [
              -97.24032129709936,
              32.84681298020693
            ],
            [
              -97.24031858265116,
              32.846808861655724
            ],
            [
              -97.24031621611317,
              32.84680459293782
            ],
            [
              -97.24031420907583,
              32.84680019495966
            ],
            [
              -97.2403125713693,
              32.846795689262066
            ],
            [
              -97.24031131101448,
              32.84679109791339
            ],
            [
              -97.24031043418456,
              32.846786443400084
            ],
            [
              -97.24030994517402,
              32.84678174851993
            ],
            [
              -97.24030984637808,
              32.84677703626722
            ],
            [
              -97.24031400733435,
              32.846574083694364
            ],
            [
              -97.24031403592289,
              32.84657361509421
            ],
            [
              -97.24031410232985,
              32.846573149232896
            ],
            [
              -97.24031420624523,
              32.846572688283615
            ],
            [
              -97.24031434718468,
              32.84657223439478
            ],
            [
              -97.24031452449076,
              32.84657178968156
            ],
            [
              -97.24031473733731,
              32.84657135621905
            ],
            [
              -97.24031498473164,
              32.846570936028264
            ],
            [
              -97.24031526552048,
              32.846570531067016
            ],
            [
              -97.24031557839466,
              32.84657014322392
            ],
            [
              -97.24031592189513,
              32.84656977430817
            ],
            [
              -97.2403162944205,
              32.84656942603908
            ],
            [
              -97.2403166942337,
              32.84656910004007
            ],
            [
              -97.24031711947097,
              32.8465687978318
            ],
            [
              -97.24031756814946,
              32.846568520823
            ],
            [
              -97.24031803817729,
              32.84656827030512
            ],
            [
              -97.24031852736265,
              32.84656804744622
            ],
            [
              -97.24031903342511,
              32.84656785328556
            ],
            [
              -97.24031955400537,
              32.846567688728584
            ],
            [
              -97.24032008667548,
              32.84656755454242
            ],
            [
              -97.2403206289528,
              32.846567451352065
            ],
            [
              -97.24032117830819,
              32.84656737963882
            ],
            [
              -97.24032173218087,
              32.84656733973821
            ],
            [
              -97.24032228798836,
              32.84656733183504
            ],
            [
              -97.2403298851255,
              32.84656744281058
            ],
            [
              -97.24032992092826,
              32.84656569649179
            ],
            [
              -97.24036909366488,
              32.84656626870203
            ],
            [
              -97.24036977331531,
              32.8465331172729
            ],
            [
              -97.24033060059332,
              32.84653254506288
            ],
            [
              -97.24033063639605,
              32.846530798744084
            ],
            [
              -97.24031888633566,
              32.84653062710435
            ],
            [
              -97.24031833118501,
              32.846530602972884
            ],
            [
              -97.2403177792799,
              32.84653054691909
            ],
            [
              -97.24031723319332,
              32.84653045920521
            ],
            [
              -97.24031669547124,
              32.84653034023883
            ],
            [
              -97.24031616862025,
              32.846530190575194
            ],
            [
              -97.2403156550976,
              32.846530010912325
            ],
            [
              -97.2403151572976,
              32.8465298020878
            ],
            [
              -97.24031467754034,
              32.846529565074775
            ],
            [
              -97.24031421806338,
              32.84652930097933
            ],
            [
              -97.24031378100887,
              32.84652901103169
            ],
            [
              -97.24031336841438,
              32.8465286965849
            ],
            [
              -97.24031298220406,
              32.84652835910425
            ],
            [
              -97.24031262417824,
              32.84652800016324
            ],
            [
              -97.24031229600615,
              32.84652762143558
            ],
            [
              -97.24031199921791,
              32.846527224686696
            ],
            [
              -97.24031173519758,
              32.846526811767674
            ],
            [
              -97.24031150517567,
              32.84652638460214
            ],
            [
              -97.24031131022484,
              32.846525945182805
            ],
            [
              -97.24031115125467,
              32.84652549555785
            ],
            [
              -97.24031102900518,
              32.84652503782414
            ],
            [
              -97.24031094404741,
              32.84652457411521
            ],
            [
              -97.24031089677686,
              32.846524106593584
            ],
            [
              -97.24031088741421,
              32.84652363743877
            ],
            [
              -97.24031176077486,
              32.8464810387114
            ],
            [
              -97.2403120706772,
              32.84646592301542
            ],
            [
              -97.23955045867245,
              32.84645479532021
            ],
            [
              -97.23955014863971,
              32.84646991099582
            ],
            [
              -97.23954960598847,
              32.846469903065596
            ],
            [
              -97.23954876719088,
              32.84651079873044
            ],
            [
              -97.2395487394889,
              32.84651125850154
            ],
            [
              -97.23954867537911,
              32.8465117156743
            ],
            [
              -97.23954857514899,
              32.84651216819858
            ],
            [
              -97.23954843924864,
              32.84651261404226
            ],
            [
              -97.2395482682873,
              32.84651305120505
            ],
            [
              -97.23954806303324,
              32.84651347772401
            ],
            [
              -97.23954782440738,
              32.84651389168618
            ],
            [
              -97.23954755348008,
              32.84651429123255
            ],
            [
              -97.23954725146793,
              32.84651467456992
            ],
            [
              -97.23954691972618,
              32.846515039978435
            ],
            [
              -97.23954655974376,
              32.846515385818364
            ],
            [
              -97.23954617313636,
              32.84651571053643
            ],
            [
              -97.23954576163914,
              32.84651601267622
            ],
            [
              -97.23954532709872,
              32.84651629088078
            ],
            [
              -97.23954487146545,
              32.846516543902425
            ],
            [
              -97.23954439678431,
              32.84651677060569
            ],
            [
              -97.23954390518601,
              32.84651696997143
            ],
            [
              -97.23954339887668,
              32.846517141107114
            ],
            [
              -97.2395428801283,
              32.84651728324271
            ],
            [
              -97.23954235126953,
              32.84651739574188
            ],
            [
              -97.23954181467418,
              32.84651747809843
            ],
            [
              -97.2395412727502,
              32.84651752994359
            ],
            [
              -97.23954072792962,
              32.84651755104411
            ],
            [
              -97.23954018265759,
              32.84651754130642
            ],
            [
              -97.23953963938241,
              32.84651750077213
            ],
            [
              -97.23953420838878,
              32.846516779172156
            ],
            [
              -97.23952884916618,
              32.84651574356407
            ],
            [
              -97.2395235871645,
              32.84651439886607
            ],
            [
              -97.23951844737165,
              32.84651275146366
            ],
            [
              -97.23951345419565,
              32.84651080918031
            ],
            [
              -97.23950863134709,
              32.84650858123983
            ],
            [
              -97.23950400172926,
              32.846506078220536
            ],
            [
              -97.23949958732689,
              32.84650331201057
            ],
            [
              -97.23949540910299,
              32.846500295744946
            ],
            [
              -97.23949148689879,
              32.84649704374779
            ],
            [
              -97.23948783933996,
              32.846493571461615
            ],
            [
              -97.23948448374806,
              32.846489895375406
            ],
            [
              -97.23948143605766,
              32.84648603294652
            ],
            [
              -97.2394787107415,
              32.84648200251609
            ],
            [
              -97.23947632074152,
              32.84647782322431
            ],
            [
              -97.23947427740755,
              32.84647351491756
            ],
            [
              -97.23947259044202,
              32.84646909805457
            ],
            [
              -97.2394712678567,
              32.84646459361051
            ],
            [
              -97.23947031593178,
              32.846460022974576
            ],
            [
              -97.23946973918747,
              32.846455407853625
            ],
            [
              -97.23946954036317,
              32.846450770162136
            ],
            [
              -97.23946465577176,
              32.846450777210194
            ],
            [
              -97.23946472481938,
              32.846484872783854
            ],
            [
              -97.23946324435516,
              32.84654267870495
            ],
            [
              -97.23946267984182,
              32.8466099065452
            ]
          ]
        ]
      }
    },
    {
      "type": "Feature",
      "properties": {
        "feature_type": "concrete"
      },
      "geometry": {
        "type": "Polygon",
        "coordinates": [
          [
            [
              -97.23935003658355,
              32.846829788186874
            ],
            [
              -97.23935227941526,
              32.84682978023508
            ],
            [
              -97.2393545162792,
              32.84682964198749
            ],
            [
              -97.2393567365637,
              32.84682937410097
            ],
            [
              -97.239358929736,
              32.84682897784604
            ],
            [
              -97.23936108539294,
              32.84682845510271
            ],
            [
              -97.23936319330839,
              32.84682780835025
            ],
            [
              -97.23936524348233,
              32.84682704065669
            ],
            [
              -97.23936722618996,
              32.8468261556638
            ],
            [
              -97.23936913202544,
              32.84682515757033
            ],
            [
              -97.23937095194768,
              32.8468240511103
            ],
            [
              -97.23937267732394,
              32.84682284153302
            ],
            [
              -97.23937429996961,
              32.84682153457669
            ],
            [
              -97.23937581218657,
              32.84682013643999
            ],
            [
              -97.2393772068015,
              32.846818653756145
            ],
            [
              -97.23937847719885,
              32.84681709355929
            ],
            [
              -97.2393796173521,
              32.84681546324927
            ],
            [
              -97.23938062185235,
              32.846813770560644
            ],
            [
              -97.23938148593523,
              32.84681202352275
            ],
            [
              -97.23938220550079,
              32.84681023042343
            ],
            [
              -97.23938277713665,
              32.84680839976855
            ],
            [
              -97.23938319813021,
              32.846806540242376
            ],
            [
              -97.2393834664847,
              32.8468046606669
            ],
            [
              -97.23938358092752,
              32.846802769956334
            ],
            [
              -97.23946035273367,
              32.84680373116158
            ],
            [
              -97.23946038809245,
              32.846805622357664
            ],
            [
              -97.23946057744877,
              32.84680750702261
            ],
            [
              -97.23946091990587,
              32.84680937623492
            ],
            [
              -97.23946141384232,
              32.846811221141834
            ],
            [
              -97.23946205691915,
              32.84681303300849
            ],
            [
              -97.23946284609136,
              32.84681480325568
            ],
            [
              -97.23946377762235,
              32.84681652350113
            ],
            [
              -97.239464847101,
              32.84681818560008
            ],
            [
              -97.2394660494639,
              32.84681978168109
            ],
            [
              -97.23946737901737,
              32.84682130418806
            ],
            [
              -97.23946882946608,
              32.84682274591142
            ],
            [
              -97.23947039394245,
              32.84682410002444
            ],
            [
              -97.23947206503806,
              32.84682536011572
            ],
            [
              -97.23947383484077,
              32.84682652021825
            ],
            [
              -97.23947569497055,
              32.84682757483883
            ],
            [
              -97.23947763661904,
              32.84682851898443
            ],
            [
              -97.23947965059342,
              32.8468293481839
            ],
            [
              -97.23948172735659,
              32.84683005851171
            ],
            [
              -97.23948385707574,
              32.84683064660371
            ],
            [
              -97.23948602966601,
              32.846831109675726
            ],
            [
              -97.23948823484083,
              32.84683144553445
            ],
            [
              -97.23949046215786,
              32.84683165259054
            ],
            [
              -97.23949270107171,
              32.84683172986298
            ],
            [
              -97.23949266955223,
              32.84683585285178
            ],
            [
              -97.23934988887655,
              32.846833909375974
            ],
            [
              -97.23935003658355,
              32.846829788186874
            ]
          ]
        ]
      }
    }
  ]
}