{
  "type": "FeatureCollection",
  "name": "site-sidewalk",
  "crs": {
    "type": "name",
    "properties": {
      "name": "urn:ogc:def:crs:OGC:1.3:CRS84"
    }
  },
  "features": [
    {
      "type": "Feature",
      "properties": {
        "feature_type": "sidewalk"
      },
      "geometry": {
        "type": "Polygon",
        "coordinates": [
          [
            [
              -97.24034273601399,
              32.84683269231179
            ],
            [
              -97.24039768139102,
              32.846833494908715
            ],
            [
              -97.24039796310846,
              32.84681975338401
            ],
            [
              -97.24032587336772,
              32.84681870035135
            ],
            [
              -97.24032796924497,
              32.846820949628906
            ],
            [
              -97.24033017643724,
              32.8468231217168
            ],
            [
              -97.24033249095952,
              32.84682521269403
            ],
            [
              -97.24033490863232,
              32.84682721878349
            ],
            [
              -97.24033742508998,
              32.84682913636318
            ],
            [
              -97.24034003578822,
              32.84683096197216
            ],
            [
              -97.24034273601399,
              32.84683269231179
            ]
          ]
        ]
      }
    },
    {
      "type": "Feature",
      "properties": {
        "feature_type": "sidewalk"
      },
      "geometry": {
        "type": "Polygon",
        "coordinates": [
          [
            [
              -97.24033493854323,
              32.84638309595383
            ],
            [
              -97.24033323410478,
              32.84646623218059
            ],
            [
              -97.2403120706772,
              32.84646592301542
            ],
            [
              -97.24031176077486,
              32.8464810387114
            ],
            [
              -97.24033288172814,
              32.84648134723764
            ],
            [
              -97.24033660482863,
              32.846530885927926
            ],
            [
              -97.24033769087741,
              32.846530901792335
            ],
            [
              -97.24033765507484,
              32.84653264811113
            ],
            [
              -97.24034850812332,
              32.84653280664614
            ],
            [
              -97.24034854392569,
              32.84653106032733
            ],
            [
              -97.240349670965,
              32.84653107679041
            ],
            [
              -97.24034594785721,
              32.84648153810049
            ],
            [
              -97.24034832005495,
              32.84636583020407
            ],
            [
              -97.23951825866544,
              32.846357417972364
            ],
            [
              -97.23951596156586,
              32.84646941138694
            ],
            [
              -97.23955014863971,
              32.84646991099582
            ],
            [
              -97.2395504586722,
              32.84645479532021
            ],
            [
              -97.23953255116034,
              32.84645453362148
            ],
            [
              -97.23953425635393,
              32.84637139740554
            ],
            [
              -97.24033493854323,
              32.84638309595383
            ]
          ]
        ]
      }
    },
    {
      "type": "Feature",
      "properties": {
        "feature_type": "sidewalk"
      },
      "geometry": {
        "type": "Polygon",
        "coordinates": [
          [
            [
              -97.24016941062926,
              32.84665902713546
            ],
            [
              -97.24022088673144,
              32.84665977912995
            ],
            [
              -97.24022091991328,
              32.846660367951884
            ],
            [
              -97.24022094613584,
              32.84666095702299
            ],
            [
              -97.24022096539562,
              32.846661546285716
            ],
            [
              -97.24022097769115,
              32.846662135681356
            ],
            [
              -97.24022098302132,
              32.84666272515095
            ],
            [
              -97.24022098138538,
              32.84666331463711
            ],
            [
              -97.24022097278382,
              32.84666390407913
            ],
            [
              -97.24021935275248,
              32.84674291784482
            ],
            [
              -97.23950120346258,
              32.846732424755324
            ],
            [
              -97.2395030218808,
              32.8466492901963
            ],
            [
              -97.23952976984665,
              32.84664968109296
            ],
            [
              -97.23952934941823,
              32.84667017886469
            ],
            [
              -97.23954562901405,
              32.84667041677306
            ],
            [
              -97.23954604943872,
              32.846649919001244
            ],
            [
              -97.23954635947206,
              32.84663480332591
            ],
            [
              -97.23949032882207,
              32.846633984490815
            ],
            [
              -97.23948655670358,
              32.84680643717023
            ],
            [
              -97.23946041790646,
              32.84680605516765
            ],
            [
              -97.23946613321307,
              32.846819884335716
            ],
            [
              -97.2401930415426,
              32.84683050557481
            ],
            [
              -97.24019720830874,
              32.84682798552553
            ],
            [
              -97.24020117475682,
              32.84682524482005
            ],
            [
              -97.24020492451402,
              32.846822294773006
            ],
            [
              -97.24020844210075,
              32.846819147561014
            ],
            [
              -97.24021171299675,
              32.846815816177305
            ],
            [
              -97.24021472370013,
              32.8468123143722
            ],
            [
              -97.24021746178296,
              32.84680865660093
            ],
            [
              -97.24021991594206,
              32.84680485796395
            ],
            [
              -97.24022207604747,
              32.846800934141164
            ],
            [
              -97.24022393318164,
              32.846796901329974
            ],
            [
              -97.2402254796792,
              32.84679277617773
            ],
            [
              -97.24022670915558,
              32.846788575712374
            ],
            [
              -97.24022761653633,
              32.84678431727366
            ],
            [
              -97.24022819807519,
              32.846780018440924
            ],
            [
              -97.24022845137227,
              32.846775696958616
            ],
            [
              -97.24023074054173,
              32.846664046770144
            ],
            [
              -97.24023072934132,
              32.846661259427314
            ],
            [
              -97.24023058150256,
              32.84665847486213
            ],
            [
              -97.24023029727891,
              32.84665569784675
            ],
            [
              -97.24022987715716,
              32.84665293313806
            ],
            [
              -97.24022932185684,
              32.84665018547199
            ],
            [
              -97.24022863232976,
              32.84664745955637
            ],
            [
              -97.24022780975673,
              32.84664476005975
            ],
            [
              -97.24016972055686,
              32.84664391145173
            ],
            [
              -97.24016941062926,
              32.84665902713546
            ]
          ],
          [
            [
              -97.24021255916222,
              32.84675656424136
            ],
            [
              -97.24021217146834,
              32.846775473135345
            ],
            [
              -97.24021194869475,
              32.84677912602389
            ],
            [
              -97.2402114312924,
              32.84678275758105
            ],
            [
              -97.24021062167022,
              32.84678635089766
            ],
            [
              -97.24020952359938,
              32.84678988923806
            ],
            [
              -97.24020814219254,
              32.846793356126064
            ],
            [
              -97.24020648388311,
              32.84679673541576
            ],
            [
              -97.24020455639372,
              32.84680001137072
            ],
            [
              -97.2402023687,
              32.84680316873589
            ],
            [
              -97.2401999309899,
              32.84680619280653
            ],
            [
              -97.24019725461535,
              32.84680906950122
            ],
            [
              -97.24019435204013,
              32.8468117854225
            ],
            [
              -97.24019123678109,
              32.846814327924264
            ],
            [
              -97.24018792334516,
              32.846816685164775
            ],
            [
              -97.23949958040875,
              32.84680662750167
            ],
            [
              -97.23950090289726,
              32.846746166004685
            ],
            [
              -97.24021255916222,
              32.84675656424136
            ]
          ]
        ]
      }
    },
    {
      "type": "Feature",
      "properties": {
        "feature_type": "sidewalk"
      },
      "geometry": {
        "type": "Polygon",
        "coordinates": [
          [
            [
              -97.24034273601399,
              32.84683269231179
            ],
            [
              -97.24039768139102,
              32.846833494908715
            ],
            [
              -97.24039796310846,
              32.84681975338401
            ],
            [
              -97.24032587336772,
              32.84681870035135
            ],
            [
              -97.24032796924497,
              32.846820949628906
            ],
            [
              -97.24033017643724,
              32.8468231217168
            ],
            [
              -97.24033249095952,
              32.84682521269403
            ],
            [
              -97.24033490863232,
              32.84682721878349
            ],
            [
              -97.24033742508998,
              32.84682913636318
            ],
            [
              -97.24034003578822,
              32.84683096197216
            ],
            [
              -97.24034273601399,
              32.84683269231179
            ]
          ]
        ]
      }
    }
  ]
}